OBJECT_NAME,OBJECT_ID,EPOCH,MEAN_MOTION,ECCENTRICITY,INCLINATION,RA_OF_ASC_NODE,ARG_OF_PERICENTER,MEAN_ANOMALY,EPHEMERIS_TYPE,CLASSIFICATION_TYPE,NORAD_CAT_ID,ELEMENT_SET_NO,REV_AT_EPOCH,BSTAR,MEAN_MOTION_DOT,MEAN_MOTION_DDOT
TIGRISAT,2014-033AK,2026-07-23T19:59:38.804064,14.85268929,.0047998,97.7875,354.0167,315.5336,44.2030,0,U,40043,999,65106,.17067E-3,.1439E-4,0
LEMUR-1,2014-033AL,2026-07-23T20:58:59.538144,14.85356761,.0047119,97.7919,353.8760,319.0161,40.7516,0,U,40044,999,65091,.17657E-3,.1493E-4,0
AEROCUBE 6A,2014-033AM,2026-07-23T00:30:08.429760,14.98410696,.00361128,97.7275,10.6016,253.9554,105.7690,0,U,40045,999,65198,.51139375E-3,.6125E-4,0
AEROCUBE 6B,2014-033AN,2026-07-23T17:20:08.498976,14.99862817,.0038277,97.7204,11.1565,239.9938,119.7485,0,U,40046,999,65223,.45919E-3,.5717E-4,0
SPOT 7,2014-034A,2026-07-23T19:44:52.857600,14.60986150,.0001692,98.0610,266.3668,93.6773,266.4622,0,U,40053,999,64248,.84639E-4,.37E-5,0
CANX-4,2014-034C,2026-07-23T05:21:20.124576,14.81321100,.0011389,98.3072,80.8513,253.9790,106.0167,0,U,40055,999,64986,.10082E-3,.73E-5,0
CANX-5,2014-034D,2026-07-23T11:47:32.685792,14.81338876,.0011405,98.3074,81.1750,253.2971,106.6989,0,U,40056,999,64071,.10106E-3,.732E-5,0
OCO 2,2014-035A,2026-07-23T19:47:32.338176,14.57137223,.0001395,98.2021,145.5618,80.9077,279.2279,0,U,40059,999,64138,.79877E-4,.315E-5,0
GONETS-M 8,2014-036A,2026-07-23T19:57:02.786400,12.42985792,.0030924,82.5106,284.8198,70.7270,289.7151,0,U,40061,999,54700,-.12073E-2,-.158E-5,0
GONETS-M 9,2014-036B,2026-07-23T20:57:46.946592,12.42952050,.0024266,82.5105,284.8735,77.2928,283.0862,0,U,40062,999,54701,-.14539E-3,-.1E-6,0
GONETS-M 10,2014-036C,2026-07-23T20:32:28.455360,12.42946155,.0022779,82.5109,284.9006,64.4520,295.8911,0,U,40063,999,54680,-.63694E-3,-.78E-6,0
METEOR-M 2,2014-037A,2026-07-23T21:20:15.202176,14.21471365,.0004679,98.5143,179.3323,297.2364,62.8337,0,U,40069,999,62453,.47956E-4,.63E-6,0
DX1,2014-037C,2026-07-23T21:25:35.746176,14.90078415,.0007786,98.3889,168.8291,143.5806,216.5941,0,U,40071,999,65157,.9336E-4,.839E-5,0
SKYSAT-B,2014-037D,2026-07-23T20:08:25.734336,14.88108065,.000615,98.3859,165.9005,146.8472,213.3130,0,U,40072,999,65141,.1379E-3,.1208E-4,0
UKUBE-1,2014-037F,2026-07-22T00:03:56.437056,15.14023415,.00031348,98.4254,209.9476,76.9955,283.1624,0,U,40074,999,65382,.4640491E-3,.8356E-4,0
TECHDEMOSAT-1 (TDS-1),2014-037H,2026-07-23T17:13:40.631232,15.13770816,.0007597,98.3838,200.5691,134.2927,225.8926,0,U,40076,999,65375,.4066E-3,.7263E-4,0
O3B FM3,2014-038A,2026-07-23T16:27:31.178592,5.00115809,.0002827,0.0479,352.4242,181.2609,186.3163,0,U,40079,999,21487,0,-.24E-6,0
O3B FM7,2014-038B,2026-07-23T10:22:05.994048,5.00115754,.0003504,0.0446,344.0074,104.9315,271.0990,0,U,40080,999,21969,0,-.24E-6,0
O3B FM6,2014-038C,2026-07-23T15:48:46.772352,5.00115848,.000261,0.0462,349.6841,131.0260,239.3135,0,U,40081,999,21965,0,-.24E-6,0
O3B FM8,2014-038D,2026-07-23T17:05:25.787328,5.00116185,.000277,0.0457,348.3694,134.5854,237.0696,0,U,40082,999,21976,0,-.24E-6,0
ORBCOMM FM109,2014-040A,2026-07-22T12:08:33.561600,14.58874903,.00010987,47.0030,284.4996,346.5261,13.5595,0,U,40086,999,63950,.5479793E-4,.88E-6,0
NAVSTAR 71 (USA 256),2014-045A,2026-07-23T10:48:53.599968,2.00561117,.0034748,55.3768,87.0199,118.5514,241.8496,0,U,40105,999,8680,0,-.67E-6,0
ASIASAT 8 (AMOS-7),2014-046A,2026-07-23T20:19:45.272064,1.00267105,.0001903,0.0600,258.0479,208.6933,245.0472,0,U,40107,999,10251,0,-.327E-5,0
YAOGAN-20 01A,2014-047A,2026-07-23T20:30:15.926400,13.45443948,.0393204,63.3790,284.6052,14.8664,346.3539,0,U,40109,999,58737,.10494E-3,.9E-7,0
YAOGAN-20 01B,2014-047B,2026-07-23T20:32:45.629952,13.45441435,.0393048,63.3790,285.4796,14.8893,346.3322,0,U,40110,999,58721,.38207E-4,-.55E-6,0
YAOGAN-20 01C,2014-047C,2026-07-23T20:18:45.662976,13.45451426,.0393089,63.3782,285.1799,15.2850,345.9659,0,U,40111,999,58722,.69402E-5,-.84E-6,0
WORLDVIEW-3 (WV-3),2014-048A,2026-07-23T19:43:04.263168,14.85074303,.0001903,97.8550,279.1465,142.2739,217.8610,0,U,40115,999,64734,.86724E-4,.688E-5,0
GAOFEN-2,2014-049A,2026-07-23T20:45:46.712736,14.80935318,.0008681,98.0089,269.0335,110.7983,249.4160,0,U,40118,999,64466,.93049E-4,.667E-5,0
BRITE-PL2 (HEWELIUSZ),2014-049B,2026-07-23T17:24:01.816128,14.94707430,.0013547,97.9123,317.0145,354.4816,5.6253,0,U,40119,999,64690,.17545E-3,.1847E-4,0
GSAT0201 (GALILEO 5),2014-050A,2026-07-21T21:53:14.723808,1.85519659,.16792967,48.8375,272.0101,180.7600,179.0021,0,U,40128,999,7896,0,-.55E-6,0
GSAT0202 (GALILEO 6),2014-050B,2026-07-22T16:57:11.028096,1.85520638,.1680735,48.8542,271.0635,181.4997,177.9799,0,U,40129,999,8114,0,-.45E-6,0
